{
    "links": {
        "self": "http://www.neowsapp.com/rest/v1/neo/3791304?api_key=iIulBulltgU6a56xZRHN4H3l9WmuAYTsLGpBGhQ2"
    },
    "id": "3791304",
    "neo_reference_id": "3791304",
    "name": "(2017 XZ2)",
    "designation": "2017 XZ2",
    "nasa_jpl_url": "http://ssd.jpl.nasa.gov/sbdb.cgi?sstr=3791304",
    "absolute_magnitude_h": 27.3,
    "estimated_diameter": {
        "kilometers": {
            "estimated_diameter_min": 0.0092162655,
            "estimated_diameter_max": 0.0206081961
        },
        "meters": {
            "estimated_diameter_min": 9.216265485,
            "estimated_diameter_max": 20.6081961232
        },
        "miles": {
            "estimated_diameter_min": 0.0057267201,
            "estimated_diameter_max": 0.0128053354
        },
        "feet": {
            "estimated_diameter_min": 30.2370924539,
            "estimated_diameter_max": 67.6121941689
        }
    },
    "is_potentially_hazardous_asteroid": false,
    "close_approach_data": [
        {
            "close_approach_date": "1960-01-13",
            "close_approach_date_full": "1960-Jan-13 14:20",
            "epoch_date_close_approach": -314530800000,
            "relative_velocity": {
                "kilometers_per_second": "19.1214963017",
                "kilometers_per_hour": "68837.3866859688",
                "miles_per_hour": "42772.8750771788"
            },
            "miss_distance": {
                "astronomical": "0.3613628412",
                "lunar": "140.5701452268",
                "kilometers": "54059111.340668244",
                "miles": "33590774.1621960072"
            },
            "orbiting_body": "Earth"
        },
        {
            "close_approach_date": "2017-12-10",
            "close_approach_date_full": "2017-Dec-10 00:13",
            "epoch_date_close_approach": 1512864780000,
            "relative_velocity": {
                "kilometers_per_second": "8.2092815872",
                "kilometers_per_hour": "29553.4137139343",
                "miles_per_hour": "18363.3419824165"
            },
            "miss_distance": {
                "astronomical": "0.0099986882",
                "lunar": "3.8894897098",
                "kilometers": "1495782.457514134",
                "miles": "929436.1205736892"
            },
            "orbiting_body": "Earth"
        },
        {
            "close_approach_date": "2017-12-10",
            "close_approach_date_full": "2017-Dec-10 05:55",
            "epoch_date_close_approach": 1512885300000,
            "relative_velocity": {
                "kilometers_per_second": "8.8382122595",
                "kilometers_per_hour": "31817.5641342114",
                "miles_per_hour": "19770.1970032826"
            },
            "miss_distance": {
                "astronomical": "0.0099703871",
                "lunar": "3.8784805819",
                "kilometers": "1491548.673235477",
                "miles": "926805.3690125026"
            },
            "orbiting_body": "Moon"
        }
    ],
    "orbital_data": {
        "orbit_id": "1",
        "orbit_determination_date": "2017-12-14 09:12:06",
        "first_observation_date": "2017-12-13",
        "last_observation_date": "2017-12-14",
        "data_arc_in_days": 1,
        "observations_used": 25,
        "orbit_uncertainty": "8",
        "minimum_orbit_intersection": ".0100039",
        "jupiter_tisserand_invariant": "3.772",
        "epoch_osculation": "2458101.5",
        "eccentricity": ".4947512039999968",
        "semi_major_axis": "1.910752575246182",
        "inclination": "5.153276118493106",
        "ascending_node_longitude": "263.4013950203472",
        "orbital_period": "964.7284969110945",
        "perihelion_distance": ".9654054380970392",
        "perihelion_argument": "152.1431129192951",
        "aphelion_distance": "2.856099712395326",
        "perihelion_time": "2458079.630393081304",
        "mean_anomaly": "8.160905908697449",
        "mean_motion": ".3731619840739256",
        "equinox": "J2000",
        "orbit_class": {
            "orbit_class_type": "APO",
            "orbit_class_description": "Near-Earth asteroid orbits which cross the Earth’s orbit similar to that of 1862 Apollo",
            "orbit_class_range": "a (semi-major axis) > 1.0 AU; q (perihelion) < 1.017 AU"
        }
    },
    "is_sentry_object": false
}